[{"OBJECT_NAME":"YAOGAN-30 06C","OBJECT_ID":"2019-045C","EPOCH":"2026-03-09T20:24:37.552032","MEAN_MOTION":15.02172666,"ECCENTRICITY":0.00010812,"INCLINATION":34.9925,"RA_OF_ASC_NODE":214.7382,"ARG_OF_PERICENTER":261.6749,"MEAN_ANOMALY":98.3837,"EPHEMERIS_TYPE":0,"CLASSIFICATION_TYPE":"U","NORAD_CAT_ID":44451,"ELEMENT_SET_NO":999,"REV_AT_EPOCH":36160,"BSTAR":0.00032595529,"MEAN_MOTION_DOT":4.352e-5,"MEAN_MOTION_DDOT":0},{"OBJECT_NAME":"STARLINK-34931","OBJECT_ID":"2025-191V","EPOCH":"2026-03-09T14:29:29.520960","MEAN_MOTION":15.05652052,"ECCENTRICITY":0.00018,"INCLINATION":97.6023,"RA_OF_ASC_NODE":301.3987,"ARG_OF_PERICENTER":83.481,"MEAN_ANOMALY":276.6621,"EPHEMERIS_TYPE":0,"CLASSIFICATION_TYPE":"U","NORAD_CAT_ID":65398,"ELEMENT_SET_NO":999,"REV_AT_EPOCH":3025,"BSTAR":0.00032075,"MEAN_MOTION_DOT":4.571e-5,"MEAN_MOTION_DDOT":0}]
